start=new Date('2022-12-22T00:00:00.000Z').valueOf();
sats=[{"MEAN_MOTION":"15.08834339","GP_ID":"221082773","MEAN_MOTION_DDOT":"0.0000000000000","ECCENTRICITY":"0.00016070","PERIOD":"95.438","MEAN_ANOMALY":"305.7014","EPHEMERIS_TYPE":"0","MEAN_ELEMENT_THEORY":"SGP4","DECAY_DATE":null,"REF_FRAME":"TEME","ELEMENT_SET_NO":"999","MEAN_MOTION_DOT":"-0.00001426","ARG_OF_PERICENTER":"54.4128","RA_OF_ASC_NODE":"340.5163","TIME_SYSTEM":"UTC","CLASSIFICATION_TYPE":"U","RCS_SIZE":"LARGE","EPOCH":"2022-12-21T10:41:47.096736","NORAD_CAT_ID":"52270","OBJECT_TYPE":"PAYLOAD","LAUNCH_DATE":"2022-04-21","REV_AT_EPOCH":"3830","TLE_LINE1":"1 52270U 22041K   22355.44568399 -.00001426  00000-0 -71553-4 0  9990","BSTAR":"-0.00007155300000","PERIAPSIS":"538.651","APOAPSIS":"540.874","COUNTRY_CODE":"US","CENTER_NAME":"EARTH","FILE":"3715958","TLE_LINE2":"2 52270  53.2184 340.5163 0001607  54.4128 305.7014 15.08834339 38309","OBJECT_NAME":"STARLINK-3804","SITE":"AFETR","OBJECT_ID":"2022-041K","SEMIMAJOR_AXIS":"6917.898","INCLINATION":"53.2184"},{"EPOCH":"2022-12-21T06:04:51.745152","NORAD_CAT_ID":"52271","RCS_SIZE":"LARGE","CLASSIFICATION_TYPE":"U","ARG_OF_PERICENTER":"46.0107","RA_OF_ASC_NODE":"341.3813","MEAN_MOTION_DOT":"0.00000277","TIME_SYSTEM":"UTC","ELEMENT_SET_NO":"999","DECAY_DATE":null,"REF_FRAME":"TEME","MEAN_ELEMENT_THEORY":"SGP4","EPHEMERIS_TYPE":"0","PERIOD":"95.438","MEAN_ANOMALY":"314.1073","MEAN_MOTION_DDOT":"0.0000000000000","MEAN_MOTION":"15.08830500","GP_ID":"221117974","ECCENTRICITY":"0.00022770","SEMIMAJOR_AXIS":"6917.909","INCLINATION":"53.2175","SITE":"AFETR","OBJECT_NAME":"STARLINK-3788","OBJECT_ID":"2022-041L","TLE_LINE2":"2 52271  53.2175 341.3813 0002277  46.0107 314.1073 15.08830500 37066","CENTER_NAME":"EARTH","FILE":"3716551","APOAPSIS":"541.350","COUNTRY_CODE":"US","BSTAR":"0.00003553300000","TLE_LINE1":"1 52271U 22041L   22355.25337668  .00000277  00000-0  35533-4 0  9992","PERIAPSIS":"538.199","OBJECT_TYPE":"PAYLOAD","LAUNCH_DATE":"2022-04-21","REV_AT_EPOCH":"3706"},{"ECCENTRICITY":"0.00024290","GP_ID":"221118224","MEAN_MOTION":"15.08832988","MEAN_MOTION_DDOT":"0.0000000000000","EPHEMERIS_TYPE":"0","MEAN_ELEMENT_THEORY":"SGP4","MEAN_ANOMALY":"327.7877","PERIOD":"95.438","TIME_SYSTEM":"UTC","MEAN_MOTION_DOT":"-0.00000378","RA_OF_ASC_NODE":"341.4284","ARG_OF_PERICENTER":"32.3264","REF_FRAME":"TEME","DECAY_DATE":null,"ELEMENT_SET_NO":"999","NORAD_CAT_ID":"52272","EPOCH":"2022-12-21T05:50:19.785984","CLASSIFICATION_TYPE":"U","RCS_SIZE":"LARGE","PERIAPSIS":"538.086","TLE_LINE1":"1 52272U 22041M   22355.24328456 -.00000378  00000-0 -56605-5 0  9995","BSTAR":"-0.00000566050000","REV_AT_EPOCH":"3706","OBJECT_TYPE":"PAYLOAD","LAUNCH_DATE":"2022-04-21","COUNTRY_CODE":"US","APOAPSIS":"541.447","TLE_LINE2":"2 52272  53.2190 341.4284 0002429  32.3264 327.7877 15.08832988 37062","FILE":"3716551","CENTER_NAME":"EARTH","INCLINATION":"53.2190","SEMIMAJOR_AXIS":"6917.902","OBJECT_ID":"2022-041M","OBJECT_NAME":"STARLINK-3781","SITE":"AFETR"},{"MEAN_ELEMENT_THEORY":"SGP4","EPHEMERIS_TYPE":"0","PERIOD":"95.438","MEAN_ANOMALY":"327.1022","MEAN_MOTION_DDOT":"0.0000000000000","GP_ID":"221126869","MEAN_MOTION":"15.08831067","ECCENTRICITY":"0.00021620","EPOCH":"2022-12-21T15:29:16.105920","NORAD_CAT_ID":"52273","RCS_SIZE":"LARGE","CLASSIFICATION_TYPE":"U","ARG_OF_PERICENTER":"33.0105","RA_OF_ASC_NODE":"329.6135","MEAN_MOTION_DOT":"-0.00000507","TIME_SYSTEM":"UTC","ELEMENT_SET_NO":"999","DECAY_DATE":null,"REF_FRAME":"TEME","APOAPSIS":"541.268","COUNTRY_CODE":"US","BSTAR":"-0.00001373300000","TLE_LINE1":"1 52273U 22041N   22355.64532530 -.00000507  00000-0 -13733-4 0  9998","PERIAPSIS":"538.277","OBJECT_TYPE":"PAYLOAD","LAUNCH_DATE":"2022-04-21","REV_AT_EPOCH":"3848","SEMIMAJOR_AXIS":"6917.908","INCLINATION":"53.2197","SITE":"AFETR","OBJECT_NAME":"STARLINK-3782","OBJECT_ID":"2022-041N","TLE_LINE2":"2 52273  53.2197 329.6135 0002162  33.0105 327.1022 15.08831067 38489","CENTER_NAME":"EARTH","FILE":"3716922"},{"APOAPSIS":"541.801","COUNTRY_CODE":"US","BSTAR":"-0.00006974300000","TLE_LINE1":"1 52274U 22041P   22355.37112966 -.00001398  00000-0 -69743-4 0  9997","PERIAPSIS":"537.720","LAUNCH_DATE":"2022-04-21","OBJECT_TYPE":"PAYLOAD","REV_AT_EPOCH":"3708","SEMIMAJOR_AXIS":"6917.896","INCLINATION":"53.2192","SITE":"AFETR","OBJECT_NAME":"STARLINK-3790","OBJECT_ID":"2022-041P","TLE_LINE2":"2 52274  53.2192 340.8508 0002950  28.2471 331.8680 15.08835042 37085","CENTER_NAME":"EARTH","FILE":"3716551","MEAN_ELEMENT_THEORY":"SGP4","EPHEMERIS_TYPE":"0","PERIOD":"95.438","MEAN_ANOMALY":"331.8680","MEAN_MOTION_DDOT":"0.0000000000000","GP_ID":"221119196","MEAN_MOTION":"15.08835042","ECCENTRICITY":"0.00029500","EPOCH":"2022-12-21T08:54:25.602624","NORAD_CAT_ID":"52274","RCS_SIZE":"LARGE","CLASSIFICATION_TYPE":"U","RA_OF_ASC_NODE":"340.8508","ARG_OF_PERICENTER":"28.2471","MEAN_MOTION_DOT":"-0.00001398","TIME_SYSTEM":"UTC","ELEMENT_SET_NO":"999","DECAY_DATE":null,"REF_FRAME":"TEME"},{"TIME_SYSTEM":"UTC","ARG_OF_PERICENTER":"26.0578","RA_OF_ASC_NODE":"341.4137","MEAN_MOTION_DOT":"-0.00000454","ELEMENT_SET_NO":"999","DECAY_DATE":null,"REF_FRAME":"TEME","NORAD_CAT_ID":"52275","EPOCH":"2022-12-21T05:54:14.954688","RCS_SIZE":"LARGE","CLASSIFICATION_TYPE":"U","ECCENTRICITY":"0.00031120","MEAN_MOTION_DDOT":"0.0000000000000","GP_ID":"221118473","MEAN_MOTION":"15.08834248","MEAN_ELEMENT_THEORY":"SGP4","EPHEMERIS_TYPE":"0","MEAN_ANOMALY":"334.0571","PERIOD":"95.438","TLE_LINE2":"2 52275  53.2177 341.4137 0003112  26.0578 334.0571 15.08834248 37068","FILE":"3716551","CENTER_NAME":"EARTH","INCLINATION":"53.2177","SEMIMAJOR_AXIS":"6917.898","OBJECT_ID":"2022-041Q","SITE":"AFETR","OBJECT_NAME":"STARLINK-3784","PERIAPSIS":"537.610","BSTAR":"-0.00001040600000","TLE_LINE1":"1 52275U 22041Q   22355.24600642 -.00000454  00000-0 -10406-4 0  9991","REV_AT_EPOCH":"3706","LAUNCH_DATE":"2022-04-21","OBJECT_TYPE":"PAYLOAD","COUNTRY_CODE":"US","APOAPSIS":"541.916"},{"EPOCH":"2022-12-21T08:49:08.476608","NORAD_CAT_ID":"52276","RCS_SIZE":"LARGE","CLASSIFICATION_TYPE":"U","RA_OF_ASC_NODE":"340.8694","ARG_OF_PERICENTER":"39.5046","MEAN_MOTION_DOT":"-0.00000375","TIME_SYSTEM":"UTC","ELEMENT_SET_NO":"999","DECAY_DATE":null,"REF_FRAME":"TEME","MEAN_ELEMENT_THEORY":"SGP4","EPHEMERIS_TYPE":"0","PERIOD":"95.438","MEAN_ANOMALY":"320.6117","MEAN_MOTION_DDOT":"0.0000000000000","GP_ID":"221118723","MEAN_MOTION":"15.08837812","ECCENTRICITY":"0.00023570","SEMIMAJOR_AXIS":"6917.887","INCLINATION":"53.2141","SITE":"AFETR","OBJECT_NAME":"STARLINK-3778","OBJECT_ID":"2022-041R","TLE_LINE2":"2 52276  53.2141 340.8694 0002357  39.5046 320.6117 15.08837812 37089","CENTER_NAME":"EARTH","FILE":"3716551","APOAPSIS":"541.383","COUNTRY_CODE":"US","BSTAR":"-0.00000543130000","TLE_LINE1":"1 52276U 22041R   22355.36745922 -.00000375  00000-0 -54313-5 0  9994","PERIAPSIS":"538.122","OBJECT_TYPE":"PAYLOAD","LAUNCH_DATE":"2022-04-21","REV_AT_EPOCH":"3708"},{"EPHEMERIS_TYPE":"0","MEAN_ELEMENT_THEORY":"SGP4","MEAN_ANOMALY":"324.7720","PERIOD":"95.438","ECCENTRICITY":"0.00023130","GP_ID":"221119475","MEAN_MOTION":"15.08835774","MEAN_MOTION_DDOT":"0.0000000000000","NORAD_CAT_ID":"52277","EPOCH":"2022-12-21T08:59:43.411200","CLASSIFICATION_TYPE":"U","RCS_SIZE":"LARGE","TIME_SYSTEM":"UTC","MEAN_MOTION_DOT":"-0.00001915","RA_OF_ASC_NODE":"340.8323","ARG_OF_PERICENTER":"35.3425","REF_FRAME":"TEME","DECAY_DATE":null,"ELEMENT_SET_NO":"999","COUNTRY_CODE":"US","APOAPSIS":"541.358","PERIAPSIS":"538.158","TLE_LINE1":"1 52277U 22041S   22355.37480800 -.00001915  00000-0 -10226-3 0  9991","BSTAR":"-0.00010226000000","REV_AT_EPOCH":"3708","LAUNCH_DATE":"2022-04-21","OBJECT_TYPE":"PAYLOAD","INCLINATION":"53.2201","SEMIMAJOR_AXIS":"6917.893","OBJECT_ID":"2022-041S","OBJECT_NAME":"STARLINK-3787","SITE":"AFETR","TLE_LINE2":"2 52277  53.2201 340.8323 0002313  35.3425 324.7720 15.08835774 37083","FILE":"3716551","CENTER_NAME":"EARTH"},{"MEAN_MOTION_DDOT":"0.0000000000000","GP_ID":"221119696","MEAN_MOTION":"15.08835924","ECCENTRICITY":"0.00021190","PERIOD":"95.438","MEAN_ANOMALY":"323.7705","MEAN_ELEMENT_THEORY":"SGP4","EPHEMERIS_TYPE":"0","ELEMENT_SET_NO":"999","DECAY_DATE":null,"REF_FRAME":"TEME","ARG_OF_PERICENTER":"36.3430","RA_OF_ASC_NODE":"340.8853","MEAN_MOTION_DOT":"-0.00002082","TIME_SYSTEM":"UTC","RCS_SIZE":"LARGE","CLASSIFICATION_TYPE":"U","EPOCH":"2022-12-21T08:43:49.368576","NORAD_CAT_ID":"52278","LAUNCH_DATE":"2022-04-21","OBJECT_TYPE":"PAYLOAD","REV_AT_EPOCH":"3708","BSTAR":"-0.00011272000000","TLE_LINE1":"1 52278U 22041T   22355.36376584 -.00002082  00000-0 -11272-3 0  9992","PERIAPSIS":"538.292","APOAPSIS":"541.224","COUNTRY_CODE":"US","CENTER_NAME":"EARTH","FILE":"3716551","TLE_LINE2":"2 52278  53.2177 340.8853 0002119  36.3430 323.7705 15.08835924 37084","SITE":"AFETR","OBJECT_NAME":"STARLINK-3780","OBJECT_ID":"2022-041T","SEMIMAJOR_AXIS":"6917.893","INCLINATION":"53.2177"},{"COUNTRY_CODE":"US","APOAPSIS":"536.371","REV_AT_EPOCH":"3709","OBJECT_TYPE":"PAYLOAD","LAUNCH_DATE":"2022-04-21","PERIAPSIS":"533.095","TLE_LINE1":"1 52279U 22041U   22355.40462335  .00015982  00000-0  97522-3 0  9991","BSTAR":"0.00097522000000","OBJECT_ID":"2022-041U","OBJECT_NAME":"STARLINK-3686","SITE":"AFETR","INCLINATION":"53.2195","SEMIMAJOR_AXIS":"6912.868","FILE":"3716551","CENTER_NAME":"EARTH","TLE_LINE2":"2 52279  53.2195 340.3624 0002369 115.5267 244.5971 15.10481327 37094","MEAN_ANOMALY":"244.5971","PERIOD":"95.334","EPHEMERIS_TYPE":"0","MEAN_ELEMENT_THEORY":"SGP4","ECCENTRICITY":"0.00023690","GP_ID":"221117975","MEAN_MOTION":"15.10481327","MEAN_MOTION_DDOT":"0.0000000000000","CLASSIFICATION_TYPE":"U","RCS_SIZE":"LARGE","NORAD_CAT_ID":"52279","EPOCH":"2022-12-21T09:42:39.457440","REF_FRAME":"TEME","DECAY_DATE":null,"ELEMENT_SET_NO":"999","TIME_SYSTEM":"UTC","MEAN_MOTION_DOT":"0.00015982","ARG_OF_PERICENTER":"115.5267","RA_OF_ASC_NODE":"340.3624"}];
